DMSP 5D-3 F16 (USA 172) 
1 28054U 03048A   26163.86214182  .00000006  00000+0  26944-4 0  9998
2 28054  98.9891 187.6618 0007547 151.4313 333.1398 14.14482729168875
METEOSAT-9 (MSG-2)      
1 28912U 05049B   26162.84606965  .00000133  00000+0  00000+0 0  9996
2 28912   9.3488  54.2186 0001583 346.4858 209.7216  1.00269859  6943
DMSP 5D-3 F17 (USA 191) 
1 29522U 06050A   26163.85630580  .00000033  00000+0  39215-4 0  9993
2 29522  98.7378 170.5149 0011266  70.5744 289.6646 14.14992482 11810
FENGYUN 3A              
1 32958U 08026A   26163.81831378  .00000049  00000+0  43949-4 0  9995
2 32958  98.6884 104.7332 0009417 135.1472 225.0467 14.19570314934788
GOES 14                 
1 35491U 09033A   26163.29340598 -.00000257  00000+0  00000+0 0  9998
2 35491   1.6767  83.0988 0001768   8.9294  58.8696  1.00112438  6548
DMSP 5D-3 F18 (USA 210) 
1 35951U 09057A   26163.82739668  .00000240  00000+0  14714-3 0  9996
2 35951  98.9036 144.6060 0009844 263.3701  96.6352 14.14894538858973
EWS-G2 (GOES 15)        
1 36411U 10008A   26163.20650184  .00000033  00000+0  00000+0 0  9992
2 36411   1.2635  82.9363 0005396  41.0669 274.5321  1.00275528 59585
COMS 1                  
1 36744U 10032A   26154.99142485 -.00000334  00000+0  00000+0 0  9999
2 36744   4.7750  75.5286 0001016   4.5847 297.3769  1.00270643 50953
FENGYUN 3B              
1 37214U 10059A   26163.87053219  .00000096  00000+0  73137-4 0  9994
2 37214  98.9626 209.8666 0021674 196.4970 336.7714 14.14839882806814
SUOMI NPP               
1 37849U 11061A   26163.82943395  .00000047  00000+0  43507-4 0  9994
2 37849  98.7954 104.7353 0001775  16.6889 343.4345 14.19516560757829
METEOSAT-10 (MSG-3)     
1 38552U 12035B   26163.05099341  .00000008  00000+0  00000+0 0  9999
2 38552   4.6588  61.0401 0001452 330.4387 247.5373  1.00276007 50805
METOP-B                 
1 38771U 12049A   26163.89575281  .00000095  00000+0  63386-4 0  9998
2 38771  98.6505 215.4804 0002496  30.0317 330.1003 14.21431594712655
INSAT-3D                
1 39216U 13038B   26163.29045931 -.00000324  00000+0  00000+0 0  9995
2 39216   1.9128  82.5990 0000607 311.1154 100.9997  1.00271554 47030
FENGYUN 3C              
1 39260U 13052A   26163.87407727  .00000073  00000+0  58087-4 0  9992
2 39260  98.4985 137.9470 0015457  39.5037 320.7262 14.15754202657950
METEOR-M 2              
1 40069U 14037A   26163.85181000  .00000027  00000+0  31667-4 0  9990
2 40069  98.5106 139.7432 0006904  54.9359 305.2466 14.21460003618702
HIMAWARI-8              
1 40267U 14060A   26163.29262597 -.00000261  00000+0  00000+0 0  9998
2 40267   0.0154 339.8220 0000710 133.4699  33.3327  1.00269306 42713
FENGYUN 2G              
1 40367U 14090A   26162.94580934 -.00000290  00000+0  00000+0 0  9993
2 40367   5.6243  72.8813 0003778 153.2581 114.2880  1.00274837 41945
METEOSAT-11 (MSG-4)     
1 40732U 15034A   26163.26670605  .00000078  00000+0  00000+0 0  9992
2 40732   3.1896  71.1389 0001744   8.2779 286.7213  1.00278811  7164
ELEKTRO-L 2             
1 41105U 15074A   26163.04804524 -.00000106  00000+0  00000+0 0  9999
2 41105   6.6796  70.5874 0000807 263.0780 289.5215  1.00271076 38455
SENTINEL-3A             
1 41335U 16011A   26163.79837964  .00000094  00000+0  56839-4 0  9993
2 41335  98.6249 231.2449 0001380 103.1021 257.0314 14.26738829537435
INSAT-3DR               
1 41752U 16054A   26163.19580737 -.00000061  00000+0  00000+0 0  9999
2 41752   0.0928  87.0939 0010592 186.9091 130.9983  1.00270623 35762
HIMAWARI-9              
1 41836U 16064A   26163.29271264  .00000000  00000+0  00000+0 0  9998
2 41836   0.0188  74.4434 0000791  67.2185   5.1106  1.00269383 35163
GOES 16                 
1 41866U 16071A   26163.24407800 -.00000075  00000+0  00000+0 0  9994
2 41866   0.3277  85.5604 0000260 298.9228 219.2798  1.00270156 35055
FENGYUN 4A              
1 41882U 16077A   26163.85964450 -.00000344  00000+0  00000+0 0  9993
2 41882   2.3104  80.3443 0008612 152.2343 101.8621  1.00271055 34887
CYGFM05                 
1 41884U 16078A   26163.04865238  .00023052  00000+0  31492-3 0  9994
2 41884  34.9573 294.6103 0006721  98.2131 261.9355 15.56445708527957
CYGFM04                 
1 41885U 16078B   26162.97120808  .00028635  00000+0  32588-3 0  9992
2 41885  34.9327 263.0749 0006130 145.0385 215.0743 15.61226098528189
CYGFM02                 
1 41886U 16078C   26162.66269799  .00033509  00000+0  33966-3 0  9999
2 41886  34.9406 259.8282 0007084 143.0324 217.0892 15.64149441528303
CYGFM01                 
1 41887U 16078D   26163.74482397  .00026683  00000+0  35474-3 0  9992
2 41887  34.9405 291.0956 0006525  98.5057 261.6407 15.57153457528014
CYGFM08                 
1 41888U 16078E   26163.71189163  .00030083  00000+0  36147-3 0  9992
2 41888  34.9435 271.0104 0007827 133.0428 227.0953 15.59794894528272
CYGFM07                 
1 41890U 16078G   26162.96732807  .00026012  00000+0  31229-3 0  9993
2 41890  34.9450 264.3111 0006468 144.1043 216.0117 15.59849811528181
CYGFM03                 
1 41891U 16078H   26162.68230620  .00026745  00000+0  32134-3 0  9998
2 41891  34.9403 268.1465 0005945 127.6188 232.5077 15.59829046528118
